[{"OBJECT_NAME":"STARLINK-4053","OBJECT_ID":"2022-101K","EPOCH":"2026-03-05T07:57:08.238240","MEAN_MOTION":15.08834735,"ECCENTRICITY":0.0001273,"INCLINATION":53.2173,"RA_OF_ASC_NODE":83.6081,"ARG_OF_PERICENTER":92.8547,"MEAN_ANOMALY":267.2591,"EPHEMERIS_TYPE":0,"CLASSIFICATION_TYPE":"U","NORAD_CAT_ID":53536,"ELEMENT_SET_NO":999,"REV_AT_EPOCH":19564,"BSTAR":3.8032991e-5,"MEAN_MOTION_DOT":3.17e-6,"MEAN_MOTION_DDOT":0},{"OBJECT_NAME":"STARLINK-4120","OBJECT_ID":"2022-101L","EPOCH":"2026-03-05T05:23:27.581856","MEAN_MOTION":15.08864893,"ECCENTRICITY":0.00020285,"INCLINATION":53.2171,"RA_OF_ASC_NODE":94.1271,"ARG_OF_PERICENTER":120.1581,"MEAN_ANOMALY":239.9612,"EPHEMERIS_TYPE":0,"CLASSIFICATION_TYPE":"U","NORAD_CAT_ID":53537,"ELEMENT_SET_NO":999,"REV_AT_EPOCH":19549,"BSTAR":0.00020276138,"MEAN_MOTION_DOT":2.942e-5,"MEAN_MOTION_DDOT":0},{"OBJECT_NAME":"STARLINK-4123","OBJECT_ID":"2022-101N","EPOCH":"2026-03-05T11:38:21.447744","MEAN_MOTION":15.08846596,"ECCENTRICITY":0.00013096,"INCLINATION":53.2168,"RA_OF_ASC_NODE":92.9973,"ARG_OF_PERICENTER":87.8859,"MEAN_ANOMALY":272.2283,"EPHEMERIS_TYPE":0,"CLASSIFICATION_TYPE":"U","NORAD_CAT_ID":53539,"ELEMENT_SET_NO":999,"REV_AT_EPOCH":19553,"BSTAR":7.7475451e-5,"MEAN_MOTION_DOT":9.46e-6,"MEAN_MOTION_DDOT":0},{"OBJECT_NAME":"STARLINK-4486","OBJECT_ID":"2022-101P","EPOCH":"2026-03-05T10:21:38.972448","MEAN_MOTION":15.08843363,"ECCENTRICITY":0.00014343,"INCLINATION":53.2161,"RA_OF_ASC_NODE":83.5912,"ARG_OF_PERICENTER":88.3985,"MEAN_ANOMALY":271.7171,"EPHEMERIS_TYPE":0,"CLASSIFICATION_TYPE":"U","NORAD_CAT_ID":53540,"ELEMENT_SET_NO":999,"REV_AT_EPOCH":19634,"BSTAR":0.00015260914,"MEAN_MOTION_DOT":2.142e-5,"MEAN_MOTION_DDOT":0},{"OBJECT_NAME":"STARLINK-4485","OBJECT_ID":"2022-101Q","EPOCH":"2026-03-05T08:17:00.119328","MEAN_MOTION":15.08841259,"ECCENTRICITY":0.00013211,"INCLINATION":53.2171,"RA_OF_ASC_NODE":93.6265,"ARG_OF_PERICENTER":91.0024,"MEAN_ANOMALY":269.1119,"EPHEMERIS_TYPE":0,"CLASSIFICATION_TYPE":"U","NORAD_CAT_ID":53541,"ELEMENT_SET_NO":999,"REV_AT_EPOCH":19620,"BSTAR":8.2923455e-5,"MEAN_MOTION_DOT":1.032e-5,"MEAN_MOTION_DDOT":0},{"OBJECT_NAME":"STARLINK-4489","OBJECT_ID":"2022-101R","EPOCH":"2026-03-05T10:57:17.987616","MEAN_MOTION":15.08842044,"ECCENTRICITY":0.00013173,"INCLINATION":53.2164,"RA_OF_ASC_NODE":83.1251,"ARG_OF_PERICENTER":87.5137,"MEAN_ANOMALY":272.6006,"EPHEMERIS_TYPE":0,"CLASSIFICATION_TYPE":"U","NORAD_CAT_ID":53542,"ELEMENT_SET_NO":999,"REV_AT_EPOCH":19635,"BSTAR":8.4133107e-5,"MEAN_MOTION_DOT":1.051e-5,"MEAN_MOTION_DDOT":0},{"OBJECT_NAME":"STARLINK-4297","OBJECT_ID":"2022-101S","EPOCH":"2026-03-05T04:56:58.192512","MEAN_MOTION":15.08828899,"ECCENTRICITY":0.00012593,"INCLINATION":53.2173,"RA_OF_ASC_NODE":84.3127,"ARG_OF_PERICENTER":92.3063,"MEAN_ANOMALY":267.8073,"EPHEMERIS_TYPE":0,"CLASSIFICATION_TYPE":"U","NORAD_CAT_ID":53543,"ELEMENT_SET_NO":999,"REV_AT_EPOCH":19631,"BSTAR":-6.6960695e-5,"MEAN_MOTION_DOT":-1.353e-5,"MEAN_MOTION_DDOT":0},{"OBJECT_NAME":"STARLINK-4303","OBJECT_ID":"2022-101T","EPOCH":"2026-03-05T06:00:33.652800","MEAN_MOTION":15.08832619,"ECCENTRICITY":0.00013729,"INCLINATION":53.2177,"RA_OF_ASC_NODE":84.056,"ARG_OF_PERICENTER":80.7612,"MEAN_ANOMALY":279.3535,"EPHEMERIS_TYPE":0,"CLASSIFICATION_TYPE":"U","NORAD_CAT_ID":53544,"ELEMENT_SET_NO":999,"REV_AT_EPOCH":19630,"BSTAR":5.0194593e-5,"MEAN_MOTION_DOT":5.11e-6,"MEAN_MOTION_DDOT":0},{"OBJECT_NAME":"STARLINK-4475","OBJECT_ID":"2022-101U","EPOCH":"2026-03-05T11:02:36.317184","MEAN_MOTION":15.08837227,"ECCENTRICITY":0.00014514,"INCLINATION":53.2167,"RA_OF_ASC_NODE":83.1045,"ARG_OF_PERICENTER":106.8573,"MEAN_ANOMALY":253.2578,"EPHEMERIS_TYPE":0,"CLASSIFICATION_TYPE":"U","NORAD_CAT_ID":53545,"ELEMENT_SET_NO":999,"REV_AT_EPOCH":19635,"BSTAR":-1.2147129e-5,"MEAN_MOTION_DOT":-4.81e-6,"MEAN_MOTION_DDOT":0},{"OBJECT_NAME":"STARLINK-4477","OBJECT_ID":"2022-101V","EPOCH":"2026-03-05T09:33:46.565568","MEAN_MOTION":15.08832443,"ECCENTRICITY":0.00012665,"INCLINATION":53.2169,"RA_OF_ASC_NODE":72.9135,"ARG_OF_PERICENTER":89.7942,"MEAN_ANOMALY":270.3195,"EPHEMERIS_TYPE":0,"CLASSIFICATION_TYPE":"U","NORAD_CAT_ID":53546,"ELEMENT_SET_NO":999,"REV_AT_EPOCH":19580,"BSTAR":-6.535882e-6,"MEAN_MOTION_DOT":-3.92e-6,"MEAN_MOTION_DDOT":0},{"OBJECT_NAME":"STARLINK-4474","OBJECT_ID":"2022-101W","EPOCH":"2026-03-05T10:52:00.933312","MEAN_MOTION":15.0883888,"ECCENTRICITY":0.00013018,"INCLINATION":53.217,"RA_OF_ASC_NODE":83.1431,"ARG_OF_PERICENTER":94.8894,"MEAN_ANOMALY":265.2246,"EPHEMERIS_TYPE":0,"CLASSIFICATION_TYPE":"U","NORAD_CAT_ID":53547,"ELEMENT_SET_NO":999,"REV_AT_EPOCH":19633,"BSTAR":-4.152146e-5,"MEAN_MOTION_DOT":-9.49e-6,"MEAN_MOTION_DDOT":0},{"OBJECT_NAME":"STARLINK-4513","OBJECT_ID":"2022-101X","EPOCH":"2026-03-05T05:44:39.128064","MEAN_MOTION":15.08839966,"ECCENTRICITY":0.00012001,"INCLINATION":53.2174,"RA_OF_ASC_NODE":84.1001,"ARG_OF_PERICENTER":99.3105,"MEAN_ANOMALY":260.8023,"EPHEMERIS_TYPE":0,"CLASSIFICATION_TYPE":"U","NORAD_CAT_ID":53548,"ELEMENT_SET_NO":999,"REV_AT_EPOCH":19563,"BSTAR":5.2545367e-5,"MEAN_MOTION_DOT":5.49e-6,"MEAN_MOTION_DDOT":0},{"OBJECT_NAME":"STARLINK-4514","OBJECT_ID":"2022-101AA","EPOCH":"2026-03-05T05:49:57.458496","MEAN_MOTION":15.08835571,"ECCENTRICITY":0.00013883,"INCLINATION":53.2177,"RA_OF_ASC_NODE":84.0815,"ARG_OF_PERICENTER":89.0948,"MEAN_ANOMALY":271.0203,"EPHEMERIS_TYPE":0,"CLASSIFICATION_TYPE":"U","NORAD_CAT_ID":53551,"ELEMENT_SET_NO":999,"REV_AT_EPOCH":19629,"BSTAR":2.071128e-5,"MEAN_MOTION_DOT":4.2e-7,"MEAN_MOTION_DDOT":0},{"OBJECT_NAME":"STARLINK-4495","OBJECT_ID":"2022-101AB","EPOCH":"2026-03-05T10:14:54.953952","MEAN_MOTION":15.08839535,"ECCENTRICITY":0.00014045,"INCLINATION":53.2174,"RA_OF_ASC_NODE":83.2569,"ARG_OF_PERICENTER":91.017,"MEAN_ANOMALY":269.0983,"EPHEMERIS_TYPE":0,"CLASSIFICATION_TYPE":"U","NORAD_CAT_ID":53552,"ELEMENT_SET_NO":999,"REV_AT_EPOCH":19631,"BSTAR":7.9343026e-5,"MEAN_MOTION_DOT":9.75e-6,"MEAN_MOTION_DDOT":0},{"OBJECT_NAME":"STARLINK-4501","OBJECT_ID":"2022-101AC","EPOCH":"2026-03-05T10:04:17.676192","MEAN_MOTION":15.0883732,"ECCENTRICITY":0.00012175,"INCLINATION":53.2166,"RA_OF_ASC_NODE":83.1632,"ARG_OF_PERICENTER":93.1812,"MEAN_ANOMALY":266.9319,"EPHEMERIS_TYPE":0,"CLASSIFICATION_TYPE":"U","NORAD_CAT_ID":53553,"ELEMENT_SET_NO":999,"REV_AT_EPOCH":19632,"BSTAR":5.9433325e-5,"MEAN_MOTION_DOT":6.58e-6,"MEAN_MOTION_DDOT":0},{"OBJECT_NAME":"STARLINK-4506","OBJECT_ID":"2022-101AD","EPOCH":"2026-03-05T05:19:34.514400","MEAN_MOTION":15.08816614,"ECCENTRICITY":0.00019372,"INCLINATION":53.2174,"RA_OF_ASC_NODE":84.1872,"ARG_OF_PERICENTER":128.8899,"MEAN_ANOMALY":231.2266,"EPHEMERIS_TYPE":0,"CLASSIFICATION_TYPE":"U","NORAD_CAT_ID":53554,"ELEMENT_SET_NO":999,"REV_AT_EPOCH":19563,"BSTAR":-0.00014777041,"MEAN_MOTION_DOT":-2.638e-5,"MEAN_MOTION_DDOT":0}]
