STARLINK-4053           
1 53536U 22101K   26064.33134535  .00000317  00000+0  38033-4 0  9994
2 53536  53.2173  83.6081 0001273  92.8547 267.2591 15.08834735195640
STARLINK-4120           
1 53537U 22101L   26064.22462478  .00002942  00000+0  20276-3 0  9998
2 53537  53.2171  94.1271 0002028 120.1581 239.9612 15.08864893195490
STARLINK-4123           
1 53539U 22101N   26064.48497046  .00000946  00000+0  77475-4 0  9993
2 53539  53.2168  92.9973 0001310  87.8859 272.2283 15.08846596195532
STARLINK-4486           
1 53540U 22101P   26064.43170107  .00002142  00000+0  15261-3 0  9990
2 53540  53.2161  83.5912 0001434  88.3985 271.7171 15.08843363196348
STARLINK-4485           
1 53541U 22101Q   26064.34514027  .00001032  00000+0  82923-4 0  9991
2 53541  53.2171  93.6265 0001321  91.0024 269.1119 15.08841259196203
STARLINK-4489           
1 53542U 22101R   26064.45645818  .00001051  00000+0  84133-4 0  9993
2 53542  53.2164  83.1251 0001317  87.5137 272.6006 15.08842044196358
STARLINK-4297           
1 53543U 22101S   26064.20622907 -.00001353  00000+0 -66961-4 0  9997
2 53543  53.2173  84.3127 0001259  92.3063 267.8073 15.08828899196319
STARLINK-4303           
1 53544U 22101T   26064.25038949  .00000511  00000+0  50195-4 0  9995
2 53544  53.2177  84.0560 0001373  80.7612 279.3535 15.08832619196305
STARLINK-4475           
1 53545U 22101U   26064.46014256 -.00000481  00000+0 -12147-4 0  9997
2 53545  53.2167  83.1045 0001451 106.8573 253.2578 15.08837227196359
STARLINK-4477           
1 53546U 22101V   26064.39845561 -.00000392  00000+0 -65359-5 0  9996
2 53546  53.2169  72.9135 0001266  89.7942 270.3195 15.08832443195800
STARLINK-4474           
1 53547U 22101W   26064.45278858 -.00000949  00000+0 -41521-4 0  9995
2 53547  53.2170  83.1431 0001302  94.8894 265.2246 15.08838880196330
STARLINK-4513           
1 53548U 22101X   26064.23934176  .00000549  00000+0  52545-4 0  9996
2 53548  53.2174  84.1001 0001200  99.3105 260.8023 15.08839966195633
STARLINK-4514           
1 53551U 22101AA  26064.24302614  .00000042  00000+0  20711-4 0  9995
2 53551  53.2177  84.0815 0001388  89.0948 271.0203 15.08835571196295
STARLINK-4495           
1 53552U 22101AB  26064.42702493  .00000975  00000+0  79343-4 0  9995
2 53552  53.2174  83.2569 0001404  91.0170 269.0983 15.08839535196318
STARLINK-4501           
1 53553U 22101AC  26064.41964902  .00000658  00000+0  59433-4 0  9996
2 53553  53.2166  83.1632 0001218  93.1812 266.9319 15.08837320196329
STARLINK-4506           
1 53554U 22101AD  26064.22192725 -.00002638  00000+0 -14777-3 0  9995
2 53554  53.2174  84.1872 0001937 128.8899 231.2266 15.08816614195637
